{"type": "FeatureCollection", "features": [ {"type": "Feature", "properties": {"norad_id": 17070, "name": "POLAR BEAR", "group": "nnss", "lat": -67.83786674483609, "lon": -177.46427566252214, "alt_km": 1017.5324296050403, "timestamp": "2025-12-20T03:42:47.661671+00:00", "meta": {"OBJECT_NAME": "POLAR BEAR", "OBJECT_ID": "1986-088A", "EPOCH": "2025-12-19T10:53:24.401760", "MEAN_MOTION": 13.75252169, "ECCENTRICITY": 0.00412501, "INCLINATION": 89.617, "RA_OF_ASC_NODE": 183.5049, "ARG_OF_PERICENTER": 99.9087, "MEAN_ANOMALY": 324.1249, "EPHEMERIS_TYPE": 0, "CLASSIFICATION_TYPE": "U", "NORAD_CAT_ID": 17070, "ELEMENT_SET_NO": 999, "REV_AT_EPOCH": 96071, "BSTAR": 9.9748716e-05, "MEAN_MOTION_DOT": 1.08e-06, "MEAN_MOTION_DDOT": 0}, "tle": {"line1": "1 17070U 86088A   25353.45375465  .00000108  00000+0  99749-4 0  9992", "line2": "2 17070  89.6170 183.5049 0041250  99.9087 324.1249 13.75252169960711"}}, "geometry": {"type": "Point", "coordinates": [-177.46427566252214, -67.83786674483609]}}, {"type": "Feature", "properties": {"norad_id": 18361, "name": "OSCAR 27", "group": "nnss", "lat": 80.23688147607842, "lon": -98.2742726371511, "alt_km": 1099.9625199943357, "timestamp": "2025-12-20T03:42:47.661682+00:00", "meta": {"OBJECT_NAME": "OSCAR 27", "OBJECT_ID": "1987-080A", "EPOCH": "2025-12-19T12:55:35.147136", "MEAN_MOTION": 13.44908026, "ECCENTRICITY": 0.010346, "INCLINATION": 90.3741, "RA_OF_ASC_NODE": 79.5267, "ARG_OF_PERICENTER": 204.1781, "MEAN_ANOMALY": 155.4493, "EPHEMERIS_TYPE": 0, "CLASSIFICATION_TYPE": "U", "NORAD_CAT_ID": 18361, "ELEMENT_SET_NO": 999, "REV_AT_EPOCH": 87648, "BSTAR": 0.00015116, "MEAN_MOTION_DOT": 1e-06, "MEAN_MOTION_DDOT": 0}, "tle": {"line1": "1 18361U 87080A   25353.53860124  .00000100  00000+0  15116-3 0  9996", "line2": "2 18361  90.3741  79.5267 0103460 204.1781 155.4493 13.44908026876489"}}, "geometry": {"type": "Point", "coordinates": [-98.2742726371511, 80.23688147607842]}}, {"type": "Feature", "properties": {"norad_id": 18362, "name": "OSCAR 29", "group": "nnss", "lat": 80.07757758542401, "lon": -97.84425025608796, "alt_km": 1130.505674861779, "timestamp": "2025-12-20T03:42:47.661692+00:00", "meta": {"OBJECT_NAME": "OSCAR 29", "OBJECT_ID": "1987-080B", "EPOCH": "2025-12-19T12:58:39.035712", "MEAN_MOTION": 13.44449557, "ECCENTRICITY": 0.010432, "INCLINATION": 90.3752, "RA_OF_ASC_NODE": 79.9861, "ARG_OF_PERICENTER": 227.4328, "MEAN_ANOMALY": 143.48, "EPHEMERIS_TYPE": 0, "CLASSIFICATION_TYPE": "U", "NORAD_CAT_ID": 18362, "ELEMENT_SET_NO": 999, "REV_AT_EPOCH": 87601, "BSTAR": 0.00013403, "MEAN_MOTION_DOT": 8.8e-07, "MEAN_MOTION_DDOT": 0}, "tle": {"line1": "1 18362U 87080B   25353.54072958  .00000088  00000+0  13403-3 0  9990", "line2": "2 18362  90.3752  79.9861 0104320 227.4328 143.4800 13.44449557876014"}}, "geometry": {"type": "Point", "coordinates": [-97.84425025608796, 80.07757758542401]}}, {"type": "Feature", "properties": {"norad_id": 19070, "name": "OSCAR 23", "group": "nnss", "lat": 28.10840145018924, "lon": -163.20626666744639, "alt_km": 1011.8117503715221, "timestamp": "2025-12-20T03:42:47.661702+00:00", "meta": {"OBJECT_NAME": "OSCAR 23", "OBJECT_ID": "1988-033A", "EPOCH": "2025-12-19T20:34:59.428128", "MEAN_MOTION": 13.27788361, "ECCENTRICITY": 0.0190114, "INCLINATION": 90.3205, "RA_OF_ASC_NODE": 16.6132, "ARG_OF_PERICENTER": 160.1584, "MEAN_ANOMALY": 12.6618, "EPHEMERIS_TYPE": 0, "CLASSIFICATION_TYPE": "U", "NORAD_CAT_ID": 19070, "ELEMENT_SET_NO": 999, "REV_AT_EPOCH": 82347, "BSTAR": 0.00019026, "MEAN_MOTION_DOT": 1.04e-06, "MEAN_MOTION_DDOT": 0}, "tle": {"line1": "1 19070U 88033A   25353.85763227  .00000104  00000+0  19026-3 0  9992", "line2": "2 19070  90.3205  16.6132 0190114 160.1584  12.6618 13.27788361823472"}}, "geometry": {"type": "Point", "coordinates": [-163.20626666744639, 28.10840145018924]}}, {"type": "Feature", "properties": {"norad_id": 19071, "name": "OSCAR 32", "group": "nnss", "lat": -88.6418923857196, "lon": -176.92676718032067, "alt_km": 1236.3794107106187, "timestamp": "2025-12-20T03:42:47.661712+00:00", "meta": {"OBJECT_NAME": "OSCAR 32", "OBJECT_ID": "1988-033B", "EPOCH": "2025-12-19T03:11:49.262784", "MEAN_MOTION": 13.27954999, "ECCENTRICITY": 0.01888457, "INCLINATION": 90.3211, "RA_OF_ASC_NODE": 16.7231, "ARG_OF_PERICENTER": 149.0701, "MEAN_ANOMALY": 277.1442, "EPHEMERIS_TYPE": 0, "CLASSIFICATION_TYPE": "U", "NORAD_CAT_ID": 19071, "ELEMENT_SET_NO": 999, "REV_AT_EPOCH": 82350, "BSTAR": 0.0001634943, "MEAN_MOTION_DOT": 9.1e-07, "MEAN_MOTION_DDOT": 0}, "tle": {"line1": "1 19071U 88033B   25353.13320906  .00000091  00000+0  16349-3 0  9997", "line2": "2 19071  90.3211  16.7231 0188845 149.0701 277.1442 13.27954999823505"}}, "geometry": {"type": "Point", "coordinates": [-176.92676718032067, -88.6418923857196]}}, {"type": "Feature", "properties": {"norad_id": 19223, "name": "NOVA 2", "group": "nnss", "lat": -29.955455690197294, "lon": 78.25579101282337, "alt_km": 1159.106334978831, "timestamp": "2025-12-20T03:42:47.661723+00:00", "meta": {"OBJECT_NAME": "NOVA 2", "OBJECT_ID": "1988-052A", "EPOCH": "2025-12-19T06:21:05.310720", "MEAN_MOTION": 13.22936436, "ECCENTRICITY": 0.0030033, "INCLINATION": 89.987, "RA_OF_ASC_NODE": 78.2644, "ARG_OF_PERICENTER": 358.9404, "MEAN_ANOMALY": 54.7754, "EPHEMERIS_TYPE": 0, "CLASSIFICATION_TYPE": "U", "NORAD_CAT_ID": 19223, "ELEMENT_SET_NO": 999, "REV_AT_EPOCH": 81034, "BSTAR": 0.00011474, "MEAN_MOTION_DOT": 5.7e-07, "MEAN_MOTION_DDOT": 0}, "tle": {"line1": "1 19223U 88052A   25353.26464480  .00000057  00000+0  11474-3 0  9993", "line2": "2 19223  89.9870  78.2644 0030033 358.9404  54.7754 13.22936436810340"}}, "geometry": {"type": "Point", "coordinates": [78.25579101282337, -29.955455690197294]}}, {"type": "Feature", "properties": {"norad_id": 19419, "name": "OSCAR 25", "group": "nnss", "lat": -31.172750482166833, "lon": -159.752146168613, "alt_km": 1036.4959095980767, "timestamp": "2025-12-20T03:42:47.661733+00:00", "meta": {"OBJECT_NAME": "OSCAR 25", "OBJECT_ID": "1988-074A", "EPOCH": "2025-12-19T20:22:23.212992", "MEAN_MOTION": 13.42624628, "ECCENTRICITY": 0.0094825, "INCLINATION": 90.034, "RA_OF_ASC_NODE": 20.2674, "ARG_OF_PERICENTER": 225.2515, "MEAN_ANOMALY": 308.6842, "EPHEMERIS_TYPE": 0, "CLASSIFICATION_TYPE": "U", "NORAD_CAT_ID": 19419, "ELEMENT_SET_NO": 999, "REV_AT_EPOCH": 82735, "BSTAR": 0.0001467, "MEAN_MOTION_DOT": 9.4e-07, "MEAN_MOTION_DDOT": 0}, "tle": {"line1": "1 19419U 88074A   25353.84887978  .00000094  00000+0  14670-3 0  9991", "line2": "2 19419  90.0340  20.2674 0094825 225.2515 308.6842 13.42624628827357"}}, "geometry": {"type": "Point", "coordinates": [-159.752146168613, -31.172750482166833]}}, {"type": "Feature", "properties": {"norad_id": 19420, "name": "OSCAR 31", "group": "nnss", "lat": 86.8135076305014, "lon": -158.74049902568999, "alt_km": 1132.0871836279784, "timestamp": "2025-12-20T03:42:47.661743+00:00", "meta": {"OBJECT_NAME": "OSCAR 31", "OBJECT_ID": "1988-074B", "EPOCH": "2025-12-19T04:19:51.591936", "MEAN_MOTION": 13.42585711, "ECCENTRICITY": 0.0093141, "INCLINATION": 90.0356, "RA_OF_ASC_NODE": 20.6162, "ARG_OF_PERICENTER": 221.3224, "MEAN_ANOMALY": 206.6129, "EPHEMERIS_TYPE": 0, "CLASSIFICATION_TYPE": "U", "NORAD_CAT_ID": 19420, "ELEMENT_SET_NO": 999, "REV_AT_EPOCH": 82737, "BSTAR": 0.00015294, "MEAN_MOTION_DOT": 9.7e-07, "MEAN_MOTION_DDOT": 0}, "tle": {"line1": "1 19420U 88074B   25353.18045824  .00000097  00000+0  15294-3 0  9992", "line2": "2 19420  90.0356  20.6162 0093141 221.3224 206.6129 13.42585711827372"}}, "geometry": {"type": "Point", "coordinates": [-158.74049902568999, 86.8135076305014]}}]}